[{"OBJECT_NAME":"OBJECT F","OBJECT_ID":"2023-072F","EPOCH":"2026-03-09T23:31:37.259904","MEAN_MOTION":15.29470958,"ECCENTRICITY":0.00062878,"INCLINATION":97.5173,"RA_OF_ASC_NODE":265.798,"ARG_OF_PERICENTER":19.0017,"MEAN_ANOMALY":341.1456,"EPHEMERIS_TYPE":0,"CLASSIFICATION_TYPE":"U","NORAD_CAT_ID":56748,"ELEMENT_SET_NO":999,"REV_AT_EPOCH":15460,"BSTAR":0.00043416252,"MEAN_MOTION_DOT":0.00012341,"MEAN_MOTION_DDOT":0},{"OBJECT_NAME":"STARLINK-32727","OBJECT_ID":"2025-018Y","EPOCH":"2026-03-09T22:06:14.412960","MEAN_MOTION":15.30214094,"ECCENTRICITY":0.00018273,"INCLINATION":53.16,"RA_OF_ASC_NODE":305.6858,"ARG_OF_PERICENTER":165.6623,"MEAN_ANOMALY":194.443,"EPHEMERIS_TYPE":0,"CLASSIFICATION_TYPE":"U","NORAD_CAT_ID":62828,"ELEMENT_SET_NO":999,"REV_AT_EPOCH":6419,"BSTAR":0.00098132864,"MEAN_MOTION_DOT":0.00028831,"MEAN_MOTION_DDOT":0}]
